H1 CPF  1  HTS 2022  9 16 12  7591 larets           NONE
H2  0304206 5557    27944 2022 09 16  0  0  0 2022 09 21  0  0  0   180 1 1  0 0 0
H5  0.0560 
H9 
10 0 59841  57960.00000  0   -6113086.822    3462468.845     638801.492
10 0 59841  58140.00000  0   -5753107.493    3582838.194    1953417.317
10 0 59841  58320.00000  0   -5181569.502    3560028.481    3196114.040
10 0 59841  58500.00000  0   -4423262.850    3389703.563    4321196.290
10 0 59841  58680.00000  0   -3509872.492    3073700.306    5287395.452
10 0 59841  58860.00000  0   -2478597.479    2620089.975    6059395.608
10 0 59841  59040.00000  0   -1370578.023    2042970.516    6609106.880
10 0 59841  59220.00000  0    -229209.009    1362000.452    6916642.440
10 0 59841  59400.00000  0     901577.702     601701.744    6970982.265
10 0 59841  59580.00000  0    1979003.177    -209439.007    6770324.519
10 0 59841  59760.00000  0    2963050.265   -1040041.043    6322123.027
10 0 59841  59940.00000  0    3817943.493   -1857039.937    5642813.838
10 0 59841  60120.00000  0    4513455.121   -2626997.949    4757232.644
10 0 59841  60300.00000  0    5025989.549   -3317468.491    3697736.096
10 0 59841  60480.00000  0    5339410.271   -3898365.011    2503046.308
10 0 59841  60660.00000  0    5445568.273   -4343270.822    1216842.952
10 0 59841  60840.00000  0    5344502.068   -4630628.094    -113843.279
10 0 59841  61020.00000  0    5044301.947   -4744746.690   -1440374.746
10 0 59841  61200.00000  0    4560641.726   -4676578.442   -2714317.741
10 0 59841  61380.00000  0    3916001.550   -4424215.987   -3889237.718
10 0 59841  61560.00000  0    3138626.389   -3993094.690   -4922400.264
10 0 59841  61740.00000  0    2261276.594   -3395891.422   -5776308.867
10 0 59841  61920.00000  0    1319837.192   -2652134.075   -6420021.644
10 0 59841  62100.00000  0     351853.782   -1787547.913   -6830219.623
10 0 59841  62280.00000  0    -604952.282    -833158.184   -6992002.303
10 0 59841  62460.00000  0   -1514129.319     175813.817   -6899391.594
10 0 59841  62640.00000  0   -2341859.530    1201224.141   -6555546.525
10 0 59841  62820.00000  0   -3058202.357    2203416.701   -5972684.187
10 0 59841  63000.00000  0   -3638181.007    3142733.440   -5171706.952
10 0 59841  63180.00000  0   -4062683.141    3981082.636   -4181529.543
10 0 59841  63360.00000  0   -4319134.904    4683505.929   -3038100.129
10 0 59841  63540.00000  0   -4401909.543    5219674.770   -1783138.711
10 0 59841  63720.00000  0   -4312453.357    5565245.792    -462627.109
10 0 59841  63900.00000  0   -4059111.175    5703003.149     874904.978
10 0 59841  64080.00000  0   -3656648.798    5623713.624    2180224.182
10 0 59841  64260.00000  0   -3125494.204    5326643.674    3405283.341
10 0 59841  64440.00000  0   -2490733.357    4819702.656    4505055.817
10 0 59841  64620.00000  0   -1780926.991    4119216.524    5439227.045
10 0 59841  64800.00000  0   -1026813.224    3249348.185    6173679.477
10 0 59841  64980.00000  0    -259962.172    2241198.027    6681712.829
10 0 59841  65160.00000  0     488550.100    1131637.063    6944966.320
10 0 59841  65340.00000  0    1189397.348     -38075.258    6954031.670
10 0 59841  65520.00000  0    1816143.691   -1223837.072    6708749.035
10 0 59841  65700.00000  0    2346231.811   -2380365.625    6218190.236
10 0 59841  65880.00000  0    2761790.803   -3462922.907    5500329.658
10 0 59841  66060.00000  0    3050238.268   -4429048.911    4581407.291
10 0 59841  66240.00000  0    3204656.576   -5240239.976    3494998.464
10 0 59841  66420.00000  0    3223931.056   -5863508.536    2280809.096
10 0 59841  66600.00000  0    3112639.952   -6272753.803     983230.540
10 0 59841  66780.00000  0    2880700.519   -6449874.591    -350293.646
10 0 59841  66960.00000  0    2542791.259   -6385573.494   -1671026.860
10 0 59841  67140.00000  0    2117571.411   -6079802.538   -2930756.391
10 0 59841  67320.00000  0    1626740.078   -5541828.407   -4083580.150
10 0 59841  67500.00000  0    1093984.930   -4789912.743   -5087584.932
10 0 59841  67680.00000  0     543884.544   -3850638.034   -5906345.492
10 0 59841  67860.00000  0        812.327   -2757922.286   -6510201.496
10 0 59841  68040.00000  0    -512110.559   -1551766.880   -6877276.440
10 0 59841  68220.00000  0    -973970.665    -276790.852   -6994219.677
10 0 59841  68400.00000  0   -1366892.869    1019398.635   -6856662.164
10 0 59841  68580.00000  0   -1676721.960    2287948.357   -6469379.069
10 0 59841  68760.00000  0   -1893533.723    3480566.808   -5846160.606
10 0 59841  68940.00000  0   -2011961.672    4551352.005   -5009386.959
10 0 59841  69120.00000  0   -2031326.442    5458580.960   -3989299.117
10 0 59841  69300.00000  0   -1955559.137    6166389.885   -2822967.315
10 0 59841  69480.00000  0   -1792914.326    6646265.850   -1552981.427
10 0 59841  69660.00000  0   -1555484.148    6878278.767    -225899.194
10 0 59841  69840.00000  0   -1258532.432    6851981.047    1109492.264
10 0 59841  70020.00000  0    -919679.165    6566918.559    2404037.229
10 0 59841  70200.00000  0    -557978.337    6032698.700    3610098.861
10 0 59841  70380.00000  0    -192943.301    5268629.171    4683367.580
10 0 59841  70560.00000  0     156426.673    4302954.205    5584526.485
10 0 59841  70740.00000  0     472573.019    3171721.996    6280690.017
10 0 59841  70920.00000  0     740206.182    1917365.821    6746572.613
10 0 59841  71100.00000  0     947000.809     587055.941    6965359.843
10 0 59841  71280.00000  0    1084132.642    -769103.394    6929264.031
10 0 59841  71460.00000  0    1146638.806   -2099965.153    6639766.767
10 0 59841  71640.00000  0    1133590.629   -3355265.676    6107547.015
10 0 59841  71820.00000  0    1048073.884   -4487522.432    5352092.831
10 0 59841  72000.00000  0     896980.849   -5453832.958    4401007.455
10 0 59841  72180.00000  0     690625.766   -6217522.025    3289034.489
10 0 59841  72360.00000  0     442194.736   -6749576.325    2056811.307
10 0 59841  72540.00000  0     167052.189   -7029791.207     749389.145
10 0 59841  72720.00000  0    -118062.592   -7047579.142    -585426.910
10 0 59841  72900.00000  0    -395909.870   -6802387.539   -1898861.554
10 0 59841  73080.00000  0    -649644.695   -6303697.431   -3142984.808
10 0 59841  73260.00000  0    -863688.282   -5570619.227   -4272480.340
10 0 59841  73440.00000  0   -1024533.236   -4631105.142   -5246297.434
10 0 59841  73620.00000  0   -1121441.909   -3520824.982   -6029115.638
10 0 59841  73800.00000  0   -1147006.667   -2281769.796   -6592578.775
10 0 59841  73980.00000  0   -1097549.806    -960644.326   -6916267.159
10 0 59841  74160.00000  0    -973350.452     392885.520   -6988388.471
10 0 59841  74340.00000  0    -778689.543    1728030.330   -6806180.862
10 0 59841  74520.00000  0    -521710.828    2994744.977   -6376025.580
10 0 59841  74700.00000  0    -214101.714    4145579.844   -5713268.289
10 0 59841  74880.00000  0     129401.823    5137464.234   -4841739.083
10 0 59841  75060.00000  0     491669.967    5933358.154   -3792969.260
10 0 59841  75240.00000  0     853971.060    6503708.654   -2605110.274
10 0 59841  75420.00000  0    1196869.925    6827637.942   -1321577.159
10 0 59841  75600.00000  0    1501191.461    6893799.071      10545.173
10 0 59841  75780.00000  0    1749000.025    6700839.146    1342273.617
10 0 59841  75960.00000  0    1924537.817    6257435.881    2624592.336
10 0 59841  76140.00000  0    2015072.367    5581908.617    3810323.671
10 0 59841  76320.00000  0    2011607.904    4701422.787    4855922.178
10 0 59841  76500.00000  0    1909420.486    3650825.180    5723108.557
10 0 59841  76680.00000  0    1708390.846    2471182.345    6380262.406
10 0 59841  76860.00000  0    1413127.312    1208113.857    6803539.494
10 0 59841  77040.00000  0    1032874.379     -90015.524    6977687.866
10 0 59841  77220.00000  0     581214.057   -1373962.127    6896547.023
10 0 59841  77400.00000  0      75570.830   -2595470.287    6563237.100
10 0 59841  77580.00000  0    -463465.064   -3709082.516    5990027.458
10 0 59841  77760.00000  0   -1012967.279   -4673826.383    5197888.402
10 0 59841  77940.00000  0   -1548627.474   -5454726.340    4215754.677
10 0 59841  78120.00000  0   -2045809.279   -6024105.468    3079505.253
10 0 59841  78300.00000  0   -2480654.763   -6362607.967    1830668.810
10 0 59841  78480.00000  0   -2831191.250   -6459890.539     514905.502
10 0 59841  78660.00000  0   -3078381.771   -6314952.221    -819681.091
10 0 59841  78840.00000  0   -3207066.648   -5936082.680   -2124333.257
10 0 59841  79020.00000  0   -3206749.275   -5340428.964   -3351452.587
10 0 59841  79200.00000  0   -3072184.706   -4553203.150   -4456357.299
10 0 59841  79380.00000  0   -2803741.004   -3606577.981   -5398904.041
10 0 59841  79560.00000  0   -2407523.777   -2538337.100   -6144914.430
10 0 59841  79740.00000  0   -1895263.123   -1390345.072   -6667366.412
10 0 59841  79920.00000  0   -1283966.800    -206902.671   -6947318.575
10 0 59841  80100.00000  0    -595359.232     966945.468   -6974547.613
10 0 59841  80280.00000  0     144875.144    2087092.576   -6747900.710
10 0 59841  80460.00000  0     908024.451    3111997.419   -6275360.129
10 0 59841  80640.00000  0    1663438.570    4004216.833   -5573813.322
10 0 59841  80820.00000  0    2379741.476    4731790.982   -4668516.448
10 0 59841  81000.00000  0    3026126.122    5269434.373   -3592257.979
10 0 59841  81180.00000  0    3573682.295    5599482.304   -2384226.509
10 0 59841  81360.00000  0    3996700.169    5712541.730   -1088608.799
10 0 59841  81540.00000  0    4273880.902    5607804.668     247040.664
10 0 59841  81720.00000  0    4389385.262    5292997.161    1573593.564
10 0 59841  81900.00000  0    4333659.821    4783958.774    2842219.525
10 0 59841  82080.00000  0    4103997.060    4103878.982    4006253.173
10 0 59841  82260.00000  0    3704792.331    3282221.152    5022965.315
99
